# Made by eph2tle, compiled Jul 30 2020 21:38:02
# Run at Thu Jul 30 21:43:49 2020
#
#    The following TLEs (Two-Line Elements) were generated by fitting
# a numerically-integrated ephemeris,  based on the orbit given below,
# to the SDP4/SGP4 models.  Each TLE is good for the interval between
# its epoch and the epoch of the subsequent TLE (usually one day).
# The maximum deviation between the numerically integrated ephemerides
# and the TLE-based ephemeris, in kilometers,  is given for each TLE
# as the "worst residual".
#
#    This fitting is done using the 'eph2tle' code packaged with Find_Orb.
# The code has details on how the TLEs were computed :
#
#    https://github.com/Bill-Gray/find_orb/eph2tle.cpp
#
#    Be warned:  the error given is that between the numerically
# integrated ephems and the TLE model.  There will usually be at
# least some additional difference between the ephems and the actual
# motion of the satellite,  especially if the ephemerides are based
# on a short arc.  If the following orbital elements say something
# like "[based on] 10 observations 2015 Jan. 1-13",  and the TLEs
# are for 2015 May,  the extrapolation may be tenuous at best.  If
# your application requires a specific level of accuracy,  you may
# want to contact me;  I can give you some idea as to the fit of the
# underlying data (and possibly TLEs based on newer data).
#
#   You can usually find the underlying observational data,  and the
# fitted orbit,  residuals,  ephemerides,  and sometimes some comments
# about the object,  among the pages listed at
#
#    https://www.projectpluto.com/pluto/mpecs/pseudo.htm
#
#    WARNING:  for this object,  "normal" TLEs cannot be fitted.  (This
# usually means an object with an hyperbolic or nearly-parabolic orbit.)
# For this and similar cases,   an alternative model is used,  in which
# most of the traditional TLE data is replaced by six signed 8-digit hex
# numbers.  These six numbers are a state vector,  numerically integrated
# using a simplified force model.  This is necessary for objects at L2 or
# L1,  and sometimes for objects in high orbits where the SDP4/SGP4 model
# fails.  I'll be posting source code for this.  But be aware:  it's my
# own extension,  doesn't work with other code,  and is therefore used
# only when necessary.
#
#    Also,  if you use a TLE outside the "correct" time range (between
# its MJD and that of the next TLE),  all bets are off.  I've carefully
# computed and minimized the worst error over the "correct" time frame,
# but the ephemeris may (or may not) diverge wildly outside of it.
#
# Ephem range: 59061.000000 59091.000000 1.000000
# Created Thu Jul 30 21:42:38 2020
# Ephemeris start: 31 Jul 2020  0:00:00
# Ephemeris end:   30 Aug 2020  0:00:00
# Times are all TDT
# Positions/velocities are in equatorial J2000
# Orbital elements:  Perseverance
#    Perigee 2020 Jul 30.5276390 +/- 0.000161 TT = 12:39:48.01 (JD 2459061.0276390)
# Epoch 2020 Jul 31.0 TT = JDT 2459061.5                        Find_Orb
# q  6590.7195570 +/- 1.08            (J2000 equator)
# H   27.5  G 0.15                    Peri.  276.0712518 +/- 0.037
#                                     Node   312.4007745 +/- 0.019
# e   1.238308121 +/- 0.000367        Incl.   27.5860543 +/- 0.0025
# From 75 observations 2020 July 30-31 (3.3 hr); mean residual 0".448
#
# 1 NoradU COSPAR   Epoch.epoch     dn/dt/2  d2n/dt2/6 BSTAR    T El# C
# 2 NoradU Inclina RAAscNode Eccent  ArgPeri MeanAno  MeanMotion Rev# C

# Worst residual: 5.37 km
# MJD 59061.000000 (2020 Jul 31  0:00)
Perseverance
1 99999U 20052A   20212.99919926 +0032Q9IL +0007HDL1 +0019G4DHH  9438
2 99999                          +000N2MQM +0003QE91 +000A8NPG     00

# Worst residual: 13.60 km
# MJD 59062.000000 (2020 Aug  1  0:00)
Perseverance
1 99999U 20052A   20213.99919926 +008CHUPW +0012VVPS +003LWVB1H  9438
2 99999                          +000LEEF8 +0003KNO9 +0009JAIP     06

# Worst residual: 1.99 km
# MJD 59063.000000 (2020 Aug  2  0:00)
Perseverance
1 99999U 20052A   20214.99919926 +00DFGY1T +001XIL5U +005VGQZVH  9436
2 99999                          +000L0ISP +0003ITMB +0009D7KC     06

# Worst residual: 0.51 km
# MJD 59064.000000 (2020 Aug  3  0:00)
Perseverance
1 99999U 20052A   20215.99919926 +00IG6BUO +002RTAES +008403PWH  9438
2 99999                          +000KTZEZ +0003HOYT +0009A6QE     05

# Worst residual: 0.65 km
# MJD 59065.000000 (2020 Aug  4  0:00)
Perseverance
1 99999U 20052A   20216.99919926 +00NFNOL3 +003LURO7 +00ABY5E8H  9432
2 99999                          +000KPYU6 +0003GMS2 +0009844D     03

# Worst residual: 0.89 km
# MJD 59066.000000 (2020 Aug  5  0:00)
Perseverance
1 99999U 20052A   20217.99919926 +00SEBYBF +004FMJMT +00CJFZASH  9431
2 99999                          +000KN4IV +0003FF9Q +00096DER     08

# Worst residual: 1.15 km
# MJD 59067.000000 (2020 Aug  6  0:00)
Perseverance
1 99999U 20052A   20218.99919926 +00XCES2W +00592VL4 +00EQJ809H  9437
2 99999                          +000KKY9Z +0003DYZD +00094PJB     02

# Worst residual: 1.39 km
# MJD 59068.000000 (2020 Aug  7  0:00)
Perseverance
1 99999U 20052A   20219.99919926 +012A0VQG +00625FDT +00GX7YZFH  9432
2 99999                          +000KJ8BT +0003C86N +0009303T     07

# Worst residual: 1.57 km
# MJD 59069.000000 (2020 Aug  8  0:00)
Perseverance
1 99999U 20052A   20220.99919926 +01779P9B +006URJZC +00J3HJK7H  9430
2 99999                          +000KHV95 +0003A5ZY +000916QZ     05

# Worst residual: 1.69 km
# MJD 59070.000000 (2020 Aug  9  0:00)
Perseverance
1 99999U 20052A   20221.99919926 +01C484XX +007MUGZW +00L9ATFUH  9435
2 99999                          +000KGTOK +00037S0X +0008Z841     08

# Worst residual: 1.79 km
# MJD 59071.000000 (2020 Aug 10  0:00)
Perseverance
1 99999U 20052A   20222.99919926 +01H0YW9X +008EBBZH +00NEMF9EH  9430
2 99999                          +000KG3AV +0003525Z +0008X3EF     06

# Worst residual: 1.93 km
# MJD 59072.000000 (2020 Aug 11  0:00)
Perseverance
1 99999U 20052A   20223.99919926 +01LXKOUO +00953AKM +00PJEUDXH  9432
2 99999                          +000KFOE9 +000320IX +0008US5R     04

# Worst residual: 2.15 km
# MJD 59073.000000 (2020 Aug 12  0:00)
Perseverance
1 99999U 20052A   20224.99919926 +01QU4CDC +009V3K0Q +00RNMH9VH  9431
2 99999                          +000KFLLS +0002YNDE +0008SA5R     02

# Worst residual: 2.47 km
# MJD 59074.000000 (2020 Aug 13  0:00)
Perseverance
1 99999U 20052A   20225.99919926 +01VQOV51 +00AK9EKU +00TR7P4IH  9433
2 99999                          +000KFVSU +0002UZ4P +0008PLBZ     01

# Worst residual: 2.85 km
# MJD 59075.000000 (2020 Aug 14  0:00)
Perseverance
1 99999U 20052A   20226.99919926 +020NDHPD +00B8I8WE +00VU4V6LH  9435
2 99999                          +000KGK07 +0002R0EE +0008MPR5     09

# Worst residual: 3.23 km
# MJD 59076.000000 (2020 Aug 15  0:00)
Perseverance
1 99999U 20052A   20227.99919926 +025K9PSV +00BVRNNO +00XWCDX3H  9437
2 99999                          +000KHNB9 +0002MRZC +0008JNMT     06

# Worst residual: 3.53 km
# MJD 59077.000000 (2020 Aug 16  0:00)
Perseverance
1 99999U 20052A   20228.99919926 +02AHHALX +00CHZFGJ +00ZXSQ8LH  9439
2 99999                          +000KJ6SO +0002IAWW +0008GFBQ     03

# Worst residual: 3.74 km
# MJD 59078.000000 (2020 Aug 17  0:00)
Perseverance
1 99999U 20052A   20229.99919926 +02FF483E +00D33MXZ +011YGGQRH  9435
2 99999                          +000KL7E8 +0002DMHA +0008D1BZ     03

# Worst residual: 3.89 km
# MJD 59079.000000 (2020 Aug 18  0:00)
Perseverance
1 99999U 20052A   20230.99919926 +02KDAP8E +00DN2OSU +013YAAZLH  9438
2 99999                          +000KNPRP +00028S69 +00089IAM     09

# Worst residual: 4.04 km
# MJD 59080.000000 (2020 Aug 19  0:00)
Perseverance
1 99999U 20052A   20231.99919926 +02PC511B +00E5VD70 +015X94JTH  9433
2 99999                          +000KQQ66 +00023TLJ +00085UYE     07

# Worst residual: 4.25 km
# MJD 59081.000000 (2020 Aug 20  0:00)
Perseverance
1 99999U 20052A   20232.99919926 +02UBRILY +00ENGU0E +017VBZM6H  9430
2 99999                          +000KU8D7 +0001YSAM +00082437     07

# Worst residual: 4.49 km
# MJD 59082.000000 (2020 Aug 21  0:00)
Perseverance
1 99999U 20052A   20233.99919926 +02ZCACYY +00F3ULGK +019SI4V3H  9437
2 99999                          +000KY7NO +0001TPJH +0007YAEM     02

# Worst residual: 4.73 km
# MJD 59083.000000 (2020 Aug 22  0:00)
Perseverance
1 99999U 20052A   20234.99919926 +034DTJL1 +00FJ0F0W +01BOQYIEH  9435
2 99999                          +000L2N0Y +0001OM6M +0007UEGR     03

# Worst residual: 4.91 km
# MJD 59084.000000 (2020 Aug 23  0:00)
Perseverance
1 99999U 20052A   20235.99919926 +039GGSJJ +00FWY7BG +01DK1YPLH  9438
2 99999                          +000L7HD0 +0001JIK7 +0007QGM4     03

# Worst residual: 5.05 km
# MJD 59085.000000 (2020 Aug 24  0:00)
Perseverance
1 99999U 20052A   20236.99919926 +03EKBKS2 +00G9NVRW +01FEEPNWH  9433
2 99999                          +000LCPOV +0001EEJF +0007MGZD     05

# Worst residual: 5.19 km
# MJD 59086.000000 (2020 Aug 25  0:00)
Perseverance
1 99999U 20052A   20237.99919926 +03JPH635 +00GL5B3E +01H7SRVEH  9432
2 99999                          +000LIBCQ +000199N9 +0007IFIN     02

# Worst residual: 5.38 km
# MJD 59087.000000 (2020 Aug 26  0:00)
Perseverance
1 99999U 20052A   20238.99919926 +03OW0Q8H +00GVE6Z6 +01J07OUCH  9431
2 99999                          +000LOA33 +00014381 +0007EC1X     08

# Worst residual: 5.61 km
# MJD 59088.000000 (2020 Aug 27  0:00)
Perseverance
1 99999U 20052A   20239.99919926 +03U41EF9 +00H4E37H +01KRMYCDH  9433
2 99999                          +000LUM0J +0000YUKW +0007A6D5     05

# Worst residual: 5.85 km
# MJD 59089.000000 (2020 Aug 28  0:00)
Perseverance
1 99999U 20052A   20240.99919926 +03ZDMEI7 +00HC4DUQ +01MI2063H  9439
2 99999                          +000M1BM7 +0000TJ3K +00075Y85     03

# Worst residual: 6.06 km
# MJD 59090.000000 (2020 Aug 29  0:00)
Perseverance
1 99999U 20052A   20241.99919926 +044OV3PF +00HIKC7Q +01O7G8A1H  9439
2 99999                          +000M8FNB +0000O4AX +00071NFY     07
Avg worst resid: 3.67 km                            
Worst residual in entire run: 13.60 km on MJD 59062.0
       1     3     10    30    100   300   1K    3K    10K   km
     3    10    16     1     0     0     0     0     0     0
